[
  { "room_id": 1, "amenity": " Non-smoking rooms" },
  { "room_id": 1, "amenity": " Fitness center" },
  { "room_id": 1, "amenity": " Restaurant" },
  { "room_id": 1, "amenity": " Facilities for disabled guests" },
  { "room_id": 1, "amenity": " WiFi in all areas" },
  { "room_id": 1, "amenity": " Free WiFi" },
  { "room_id": 2, "amenity": " Non-smoking rooms" },
  { "room_id": 2, "amenity": " Fitness center" },
  { "room_id": 2, "amenity": " Restaurant" },
  { "room_id": 2, "amenity": " Facilities for disabled guests" },
  { "room_id": 2, "amenity": " WiFi in all areas" },
  { "room_id": 2, "amenity": " Free WiFi" },
  { "room_id": 3, "amenity": " Non-smoking rooms" },
  { "room_id": 3, "amenity": " Fitness center" },
  { "room_id": 3, "amenity": " Restaurant" },
  { "room_id": 3, "amenity": " Facilities for disabled guests" },
  { "room_id": 3, "amenity": " WiFi in all areas" },
  { "room_id": 3, "amenity": " Free WiFi" },
  { "room_id": 4, "amenity": " Non-smoking rooms" },
  { "room_id": 4, "amenity": " Fitness center" },
  { "room_id": 4, "amenity": " Restaurant" },
  { "room_id": 4, "amenity": " Facilities for disabled guests" },
  { "room_id": 4, "amenity": " WiFi in all areas" },
  { "room_id": 4, "amenity": " Free WiFi" },
  { "room_id": 5, "amenity": " Non-smoking rooms" },
  { "room_id": 5, "amenity": " good Fitness Center" },
  { "room_id": 5, "amenity": " Room service" },
  { "room_id": 5, "amenity": " Facilities for disabled guests" },
  { "room_id": 5, "amenity": " WiFi in all areas" },
  { "room_id": 5, "amenity": " Private Parking" },
  { "room_id": 6, "amenity": " Non-smoking rooms" },
  { "room_id": 6, "amenity": " good Fitness Center" },
  { "room_id": 6, "amenity": " Room service" },
  { "room_id": 6, "amenity": " Facilities for disabled guests" },
  { "room_id": 6, "amenity": " WiFi in all areas" },
  { "room_id": 6, "amenity": " Private Parking" },
  { "room_id": 7, "amenity": " Non-smoking rooms" },
  { "room_id": 7, "amenity": " good Fitness Center" },
  { "room_id": 7, "amenity": " Room service" },
  { "room_id": 7, "amenity": " Facilities for disabled guests" },
  { "room_id": 7, "amenity": " WiFi in all areas" },
  { "room_id": 7, "amenity": " Private Parking" },
  { "room_id": 8, "amenity": " Non-smoking rooms" },
  { "room_id": 8, "amenity": " good Fitness Center" },
  { "room_id": 8, "amenity": " Room service" },
  { "room_id": 8, "amenity": " Facilities for disabled guests" },
  { "room_id": 8, "amenity": " WiFi in all areas" },
  { "room_id": 8, "amenity": " Private Parking" },
  { "room_id": 9, "amenity": " Non-smoking rooms" },
  { "room_id": 9, "amenity": " good Fitness Center" },
  { "room_id": 9, "amenity": " Room service" },
  { "room_id": 9, "amenity": " Facilities for disabled guests" },
  { "room_id": 9, "amenity": " WiFi in all areas" },
  { "room_id": 9, "amenity": " Private Parking" },
  { "room_id": 10, "amenity": " Non-smoking rooms" },
  { "room_id": 10, "amenity": " good Fitness Center" },
  { "room_id": 10, "amenity": " Room service" },
  { "room_id": 10, "amenity": " Facilities for disabled guests" },
  { "room_id": 10, "amenity": " WiFi in all areas" },
  { "room_id": 10, "amenity": " Private Parking" },
  { "room_id": 11, "amenity": " Non-smoking rooms" },
  { "room_id": 11, "amenity": " good Fitness Center" },
  { "room_id": 11, "amenity": " Room service" },
  { "room_id": 11, "amenity": " Facilities for disabled guests" },
  { "room_id": 11, "amenity": " WiFi in all areas" },
  { "room_id": 11, "amenity": " Private Parking" },
  { "room_id": 12, "amenity": " Non-smoking rooms" },
  { "room_id": 12, "amenity": " good Fitness Center" },
  { "room_id": 12, "amenity": " Room service" },
  { "room_id": 12, "amenity": " Facilities for disabled guests" },
  { "room_id": 12, "amenity": " WiFi in all areas" },
  { "room_id": 12, "amenity": " Private Parking" },
  { "room_id": 13, "amenity": " Non-smoking rooms" },
  { "room_id": 13, "amenity": " good Fitness Center" },
  { "room_id": 13, "amenity": " Room service" },
  { "room_id": 13, "amenity": " Facilities for disabled guests" },
  { "room_id": 13, "amenity": " WiFi in all areas" },
  { "room_id": 13, "amenity": " Private Parking" },
  { "room_id": 14, "amenity": " Non-smoking rooms" },
  { "room_id": 14, "amenity": " good Fitness Center" },
  { "room_id": 14, "amenity": " Room service" },
  { "room_id": 14, "amenity": " Facilities for disabled guests" },
  { "room_id": 14, "amenity": " WiFi in all areas" },
  { "room_id": 14, "amenity": " Private Parking" },
  { "room_id": 15, "amenity": " Non-smoking rooms" },
  { "room_id": 15, "amenity": " good Fitness Center" },
  { "room_id": 15, "amenity": " Restaurant" },
  { "room_id": 15, "amenity": " Facilities for disabled guests" },
  { "room_id": 15, "amenity": " Free WiFi" },
  { "room_id": 15, "amenity": " Parking" },
  { "room_id": 16, "amenity": " Non-smoking rooms" },
  { "room_id": 16, "amenity": " good Fitness Center" },
  { "room_id": 16, "amenity": " Restaurant" },
  { "room_id": 16, "amenity": " Facilities for disabled guests" },
  { "room_id": 16, "amenity": " Free WiFi" },
  { "room_id": 16, "amenity": " Parking" },
  { "room_id": 17, "amenity": " Non-smoking rooms" },
  { "room_id": 17, "amenity": " good Fitness Center" },
  { "room_id": 17, "amenity": " Restaurant" },
  { "room_id": 17, "amenity": " Facilities for disabled guests" },
  { "room_id": 17, "amenity": " Free WiFi" },
  { "room_id": 17, "amenity": " Parking" },
  { "room_id": 18, "amenity": " Non-smoking rooms" },
  { "room_id": 18, "amenity": " good Fitness Center" },
  { "room_id": 18, "amenity": " Restaurant" },
  { "room_id": 18, "amenity": " Facilities for disabled guests" },
  { "room_id": 18, "amenity": " Free WiFi" },
  { "room_id": 18, "amenity": " Parking" },
  { "room_id": 19, "amenity": " Non-smoking rooms" },
  { "room_id": 19, "amenity": " good Fitness Center" },
  { "room_id": 19, "amenity": " Facilities for disabled guests" },
  { "room_id": 19, "amenity": " Free WiFi - 8.4 Very Good" },
  { "room_id": 19, "amenity": " Parking" },
  { "room_id": 19, "amenity": " Tea/Coffee Maker in All Rooms" },
  { "room_id": 20, "amenity": " Non-smoking rooms" },
  { "room_id": 20, "amenity": " good Fitness Center" },
  { "room_id": 20, "amenity": " Facilities for disabled guests" },
  { "room_id": 20, "amenity": " Free WiFi - 8.4 Very Good" },
  { "room_id": 20, "amenity": " Parking" },
  { "room_id": 20, "amenity": " Tea/Coffee Maker in All Rooms" },
  { "room_id": 21, "amenity": " Non-smoking rooms" },
  { "room_id": 21, "amenity": " good Fitness Center" },
  { "room_id": 21, "amenity": " Facilities for disabled guests" },
  { "room_id": 21, "amenity": " Free WiFi - 8.4 Very Good" },
  { "room_id": 21, "amenity": " Parking" },
  { "room_id": 21, "amenity": " Tea/Coffee Maker in All Rooms" },
  { "room_id": 22, "amenity": " Non-smoking rooms" },
  { "room_id": 22, "amenity": " good Fitness Center" },
  { "room_id": 22, "amenity": " Facilities for disabled guests" },
  { "room_id": 22, "amenity": " Free WiFi - 8.4 Very Good" },
  { "room_id": 22, "amenity": " Parking" },
  { "room_id": 22, "amenity": " Tea/Coffee Maker in All Rooms" },
  { "room_id": 23, "amenity": " Non-smoking rooms" },
  { "room_id": 23, "amenity": " Fitness center" },
  { "room_id": 23, "amenity": " Room service" },
  { "room_id": 23, "amenity": " Facilities for disabled guests" },
  { "room_id": 23, "amenity": " WiFi in all areas" },
  { "room_id": 23, "amenity": " Private Parking" },
  { "room_id": 24, "amenity": " Non-smoking rooms" },
  { "room_id": 24, "amenity": " Fitness center" },
  { "room_id": 24, "amenity": " Room service" },
  { "room_id": 24, "amenity": " Facilities for disabled guests" },
  { "room_id": 24, "amenity": " WiFi in all areas" },
  { "room_id": 24, "amenity": " Private Parking" },
  { "room_id": 25, "amenity": " Non-smoking rooms" },
  { "room_id": 25, "amenity": " Fitness center" },
  { "room_id": 25, "amenity": " Room service" },
  { "room_id": 25, "amenity": " Facilities for disabled guests" },
  { "room_id": 25, "amenity": " WiFi in all areas" },
  { "room_id": 25, "amenity": " Private Parking" },
  { "room_id": 26, "amenity": " Non-smoking rooms" },
  { "room_id": 26, "amenity": " Fitness center" },
  { "room_id": 26, "amenity": " Room service" },
  { "room_id": 26, "amenity": " Facilities for disabled guests" },
  { "room_id": 26, "amenity": " WiFi in all areas" },
  { "room_id": 26, "amenity": " Private Parking" },
  { "room_id": 27, "amenity": " Non-smoking rooms" },
  { "room_id": 27, "amenity": " Fitness center" },
  { "room_id": 27, "amenity": " Room service" },
  { "room_id": 27, "amenity": " Facilities for disabled guests" },
  { "room_id": 27, "amenity": " WiFi in all areas" },
  { "room_id": 27, "amenity": " Private Parking" },
  { "room_id": 28, "amenity": " Non-smoking rooms" },
  { "room_id": 28, "amenity": " Fitness center" },
  { "room_id": 28, "amenity": " Room service" },
  { "room_id": 28, "amenity": " Facilities for disabled guests" },
  { "room_id": 28, "amenity": " WiFi in all areas" },
  { "room_id": 28, "amenity": " Private Parking" },
  { "room_id": 29, "amenity": " Non-smoking rooms" },
  { "room_id": 29, "amenity": " good Fitness Center" },
  { "room_id": 29, "amenity": " Facilities for disabled guests" },
  { "room_id": 29, "amenity": " WiFi in all areas" },
  { "room_id": 29, "amenity": " Free WiFi" },
  { "room_id": 29, "amenity": " Tea/Coffee Maker in All Rooms" },
  { "room_id": 30, "amenity": " Non-smoking rooms" },
  { "room_id": 30, "amenity": " good Fitness Center" },
  { "room_id": 30, "amenity": " Facilities for disabled guests" },
  { "room_id": 30, "amenity": " WiFi in all areas" },
  { "room_id": 30, "amenity": " Free WiFi" },
  { "room_id": 30, "amenity": " Tea/Coffee Maker in All Rooms" },
  { "room_id": 31, "amenity": " Non-smoking rooms" },
  { "room_id": 31, "amenity": " good Fitness Center" },
  { "room_id": 31, "amenity": " Facilities for disabled guests" },
  { "room_id": 31, "amenity": " WiFi in all areas" },
  { "room_id": 31, "amenity": " Free WiFi" },
  { "room_id": 31, "amenity": " Tea/Coffee Maker in All Rooms" },
  { "room_id": 32, "amenity": " Non-smoking rooms" },
  { "room_id": 32, "amenity": " Restaurant" },
  { "room_id": 32, "amenity": " Facilities for disabled guests" },
  { "room_id": 32, "amenity": " WiFi in all areas" },
  { "room_id": 32, "amenity": " Free WiFi" },
  { "room_id": 32, "amenity": " Family rooms" },
  { "room_id": 33, "amenity": " Non-smoking rooms" },
  { "room_id": 33, "amenity": " Restaurant" },
  { "room_id": 33, "amenity": " Facilities for disabled guests" },
  { "room_id": 33, "amenity": " WiFi in all areas" },
  { "room_id": 33, "amenity": " Free WiFi" },
  { "room_id": 33, "amenity": " Family rooms" },
  { "room_id": 34, "amenity": " Non-smoking rooms" },
  { "room_id": 34, "amenity": " Restaurant" },
  { "room_id": 34, "amenity": " Facilities for disabled guests" },
  { "room_id": 34, "amenity": " WiFi in all areas" },
  { "room_id": 34, "amenity": " Free WiFi" },
  { "room_id": 34, "amenity": " Family rooms" },
  { "room_id": 35, "amenity": " Non-smoking rooms" },
  { "room_id": 35, "amenity": " Restaurant" },
  { "room_id": 35, "amenity": " Facilities for disabled guests" },
  { "room_id": 35, "amenity": " WiFi in all areas" },
  { "room_id": 35, "amenity": " Free WiFi" },
  { "room_id": 35, "amenity": " Family rooms" },
  { "room_id": 36, "amenity": " Non-smoking rooms" },
  { "room_id": 36, "amenity": " Restaurant" },
  { "room_id": 36, "amenity": " Facilities for disabled guests" },
  { "room_id": 36, "amenity": " WiFi in all areas" },
  { "room_id": 36, "amenity": " Free WiFi" },
  { "room_id": 36, "amenity": " Family rooms" },
  { "room_id": 37, "amenity": " Non-smoking rooms" },
  { "room_id": 37, "amenity": " Restaurant" },
  { "room_id": 37, "amenity": " Facilities for disabled guests" },
  { "room_id": 37, "amenity": " WiFi in all areas" },
  { "room_id": 37, "amenity": " Free WiFi" },
  { "room_id": 37, "amenity": " Family rooms" },
  { "room_id": 38, "amenity": " Non-smoking rooms" },
  { "room_id": 38, "amenity": " Restaurant" },
  { "room_id": 38, "amenity": " Facilities for disabled guests" },
  { "room_id": 38, "amenity": " WiFi in all areas" },
  { "room_id": 38, "amenity": " Free WiFi" },
  { "room_id": 38, "amenity": " Family rooms" },
  { "room_id": 39, "amenity": " Non-smoking rooms" },
  { "room_id": 39, "amenity": " Restaurant" },
  { "room_id": 39, "amenity": " Facilities for disabled guests" },
  { "room_id": 39, "amenity": " WiFi in all areas" },
  { "room_id": 39, "amenity": " Free WiFi" },
  { "room_id": 39, "amenity": " Family rooms" },
  { "room_id": 40, "amenity": " Non-smoking rooms" },
  { "room_id": 40, "amenity": " Restaurant" },
  { "room_id": 40, "amenity": " Facilities for disabled guests" },
  { "room_id": 40, "amenity": " WiFi in all areas" },
  { "room_id": 40, "amenity": " Free WiFi" },
  { "room_id": 40, "amenity": " Family rooms" },
  { "room_id": 41, "amenity": " Non-smoking rooms" },
  { "room_id": 41, "amenity": " Restaurant" },
  { "room_id": 41, "amenity": " Facilities for disabled guests" },
  { "room_id": 41, "amenity": " WiFi in all areas" },
  { "room_id": 41, "amenity": " Free WiFi" },
  { "room_id": 41, "amenity": " Family rooms" },
  { "room_id": 42, "amenity": " Non-smoking rooms" },
  { "room_id": 42, "amenity": " Restaurant" },
  { "room_id": 42, "amenity": " Facilities for disabled guests" },
  { "room_id": 42, "amenity": " WiFi in all areas" },
  { "room_id": 42, "amenity": " Free WiFi" },
  { "room_id": 42, "amenity": " Family rooms" },
  { "room_id": 43, "amenity": " Non-smoking rooms" },
  { "room_id": 43, "amenity": " Restaurant" },
  { "room_id": 43, "amenity": " Facilities for disabled guests" },
  { "room_id": 43, "amenity": " WiFi in all areas" },
  { "room_id": 43, "amenity": " Free WiFi" },
  { "room_id": 43, "amenity": " Family rooms" },
  { "room_id": 44, "amenity": " Non-smoking rooms" },
  { "room_id": 44, "amenity": " Restaurant" },
  { "room_id": 44, "amenity": " Facilities for disabled guests" },
  { "room_id": 44, "amenity": " WiFi in all areas" },
  { "room_id": 44, "amenity": " Private Parking" },
  { "room_id": 44, "amenity": " Free WiFi" },
  { "room_id": 45, "amenity": " Non-smoking rooms" },
  { "room_id": 45, "amenity": " Restaurant" },
  { "room_id": 45, "amenity": " Facilities for disabled guests" },
  { "room_id": 45, "amenity": " WiFi in all areas" },
  { "room_id": 45, "amenity": " Private Parking" },
  { "room_id": 45, "amenity": " Free WiFi" },
  { "room_id": 46, "amenity": " Non-smoking rooms" },
  { "room_id": 46, "amenity": " Restaurant" },
  { "room_id": 46, "amenity": " Facilities for disabled guests" },
  { "room_id": 46, "amenity": " WiFi in all areas" },
  { "room_id": 46, "amenity": " Private Parking" },
  { "room_id": 46, "amenity": " Free WiFi" },
  { "room_id": 47, "amenity": " Non-smoking rooms" },
  { "room_id": 47, "amenity": " Restaurant" },
  { "room_id": 47, "amenity": " Facilities for disabled guests" },
  { "room_id": 47, "amenity": " WiFi in all areas" },
  { "room_id": 47, "amenity": " Private Parking" },
  { "room_id": 47, "amenity": " Free WiFi" },
  { "room_id": 48, "amenity": " Non-smoking rooms" },
  { "room_id": 48, "amenity": " Restaurant" },
  { "room_id": 48, "amenity": " Facilities for disabled guests" },
  { "room_id": 48, "amenity": " WiFi in all areas" },
  { "room_id": 48, "amenity": " Private Parking" },
  { "room_id": 48, "amenity": " Free WiFi" },
  { "room_id": 49, "amenity": " Non-smoking rooms" },
  { "room_id": 49, "amenity": " Room service" },
  { "room_id": 49, "amenity": " Restaurant" },
  { "room_id": 49, "amenity": " Facilities for disabled guests" },
  { "room_id": 49, "amenity": " WiFi in all areas" },
  { "room_id": 49, "amenity": " Free WiFi" },
  { "room_id": 50, "amenity": " Non-smoking rooms" },
  { "room_id": 50, "amenity": " Room service" },
  { "room_id": 50, "amenity": " Restaurant" },
  { "room_id": 50, "amenity": " Facilities for disabled guests" },
  { "room_id": 50, "amenity": " WiFi in all areas" },
  { "room_id": 50, "amenity": " Free WiFi" },
  { "room_id": 51, "amenity": " Non-smoking rooms" },
  { "room_id": 51, "amenity": " Room service" },
  { "room_id": 51, "amenity": " Restaurant" },
  { "room_id": 51, "amenity": " Facilities for disabled guests" },
  { "room_id": 51, "amenity": " WiFi in all areas" },
  { "room_id": 51, "amenity": " Free WiFi" },
  { "room_id": 52, "amenity": " Non-smoking rooms" },
  { "room_id": 52, "amenity": " Room service" },
  { "room_id": 52, "amenity": " Restaurant" },
  { "room_id": 52, "amenity": " Facilities for disabled guests" },
  { "room_id": 52, "amenity": " WiFi in all areas" },
  { "room_id": 52, "amenity": " Free WiFi" },
  { "room_id": 53, "amenity": " Non-smoking rooms" },
  { "room_id": 53, "amenity": " Room service" },
  { "room_id": 53, "amenity": " Restaurant" },
  { "room_id": 53, "amenity": " Facilities for disabled guests" },
  { "room_id": 53, "amenity": " WiFi in all areas" },
  { "room_id": 53, "amenity": " Free WiFi" },
  { "room_id": 54, "amenity": " Non-smoking rooms" },
  { "room_id": 54, "amenity": " Room service" },
  { "room_id": 54, "amenity": " Restaurant" },
  { "room_id": 54, "amenity": " Facilities for disabled guests" },
  { "room_id": 54, "amenity": " WiFi in all areas" },
  { "room_id": 54, "amenity": " Free WiFi" },
  { "room_id": 55, "amenity": " Non-smoking rooms" },
  { "room_id": 55, "amenity": " Room service" },
  { "room_id": 55, "amenity": " Restaurant" },
  { "room_id": 55, "amenity": " Facilities for disabled guests" },
  { "room_id": 55, "amenity": " WiFi in all areas" },
  { "room_id": 55, "amenity": " Free WiFi" },
  { "room_id": 56, "amenity": " Non-smoking rooms" },
  { "room_id": 56, "amenity": " Room service" },
  { "room_id": 56, "amenity": " Restaurant" },
  { "room_id": 56, "amenity": " Facilities for disabled guests" },
  { "room_id": 56, "amenity": " WiFi in all areas" },
  { "room_id": 56, "amenity": " Free WiFi" },
  { "room_id": 57, "amenity": " Non-smoking rooms" },
  { "room_id": 57, "amenity": " Room service" },
  { "room_id": 57, "amenity": " Restaurant" },
  { "room_id": 57, "amenity": " Facilities for disabled guests" },
  { "room_id": 57, "amenity": " WiFi in all areas" },
  { "room_id": 57, "amenity": " Free WiFi" },
  { "room_id": 58, "amenity": " Non-smoking rooms" },
  { "room_id": 58, "amenity": " Fitness center" },
  { "room_id": 58, "amenity": " Room service" },
  { "room_id": 58, "amenity": " Facilities for disabled guests" },
  { "room_id": 58, "amenity": " Airport shuttle" },
  { "room_id": 58, "amenity": " Free WiFi" },
  { "room_id": 59, "amenity": " Non-smoking rooms" },
  { "room_id": 59, "amenity": " Fitness center" },
  { "room_id": 59, "amenity": " Room service" },
  { "room_id": 59, "amenity": " Facilities for disabled guests" },
  { "room_id": 59, "amenity": " Airport shuttle" },
  { "room_id": 59, "amenity": " Free WiFi" },
  { "room_id": 60, "amenity": " Non-smoking rooms" },
  { "room_id": 60, "amenity": " Fitness center" },
  { "room_id": 60, "amenity": " Room service" },
  { "room_id": 60, "amenity": " Facilities for disabled guests" },
  { "room_id": 60, "amenity": " Airport shuttle" },
  { "room_id": 60, "amenity": " Free WiFi" },
  { "room_id": 61, "amenity": " Non-smoking rooms" },
  { "room_id": 61, "amenity": " Fitness center" },
  { "room_id": 61, "amenity": " Room service" },
  { "room_id": 61, "amenity": " Facilities for disabled guests" },
  { "room_id": 61, "amenity": " Airport shuttle" },
  { "room_id": 61, "amenity": " Free WiFi" },
  { "room_id": 62, "amenity": " Non-smoking rooms" },
  { "room_id": 62, "amenity": " good Fitness Center" },
  { "room_id": 62, "amenity": " Restaurant" },
  { "room_id": 62, "amenity": " Facilities for disabled guests" },
  { "room_id": 62, "amenity": " WiFi in all areas" },
  { "room_id": 62, "amenity": " Free WiFi" },
  { "room_id": 63, "amenity": " Non-smoking rooms" },
  { "room_id": 63, "amenity": " good Fitness Center" },
  { "room_id": 63, "amenity": " Restaurant" },
  { "room_id": 63, "amenity": " Facilities for disabled guests" },
  { "room_id": 63, "amenity": " WiFi in all areas" },
  { "room_id": 63, "amenity": " Free WiFi" },
  { "room_id": 64, "amenity": " Non-smoking rooms" },
  { "room_id": 64, "amenity": " good Fitness Center" },
  { "room_id": 64, "amenity": " Restaurant" },
  { "room_id": 64, "amenity": " Facilities for disabled guests" },
  { "room_id": 64, "amenity": " WiFi in all areas" },
  { "room_id": 64, "amenity": " Free WiFi" },
  { "room_id": 65, "amenity": " Non-smoking rooms" },
  { "room_id": 65, "amenity": " good Fitness Center" },
  { "room_id": 65, "amenity": " Restaurant" },
  { "room_id": 65, "amenity": " Facilities for disabled guests" },
  { "room_id": 65, "amenity": " WiFi in all areas" },
  { "room_id": 65, "amenity": " Free WiFi" },
  { "room_id": 66, "amenity": " Non-smoking rooms" },
  { "room_id": 66, "amenity": " good Fitness Center" },
  { "room_id": 66, "amenity": " Restaurant" },
  { "room_id": 66, "amenity": " Facilities for disabled guests" },
  { "room_id": 66, "amenity": " WiFi in all areas" },
  { "room_id": 66, "amenity": " Free WiFi" },
  { "room_id": 67, "amenity": " Non-smoking rooms" },
  { "room_id": 67, "amenity": " good Fitness Center" },
  { "room_id": 67, "amenity": " Restaurant" },
  { "room_id": 67, "amenity": " Facilities for disabled guests" },
  { "room_id": 67, "amenity": " WiFi in all areas" },
  { "room_id": 67, "amenity": " Free WiFi" },
  { "room_id": 68, "amenity": " Non-smoking rooms" },
  { "room_id": 68, "amenity": " good Fitness Center" },
  { "room_id": 68, "amenity": " Restaurant" },
  { "room_id": 68, "amenity": " Facilities for disabled guests" },
  { "room_id": 68, "amenity": " WiFi in all areas" },
  { "room_id": 68, "amenity": " Free WiFi" },
  { "room_id": 69, "amenity": " Non-smoking rooms" },
  { "room_id": 69, "amenity": " good Fitness Center" },
  { "room_id": 69, "amenity": " Restaurant" },
  { "room_id": 69, "amenity": " Facilities for disabled guests" },
  { "room_id": 69, "amenity": " WiFi in all areas" },
  { "room_id": 69, "amenity": " Free WiFi" },
  { "room_id": 70, "amenity": " Non-smoking rooms" },
  { "room_id": 70, "amenity": " good Fitness Center" },
  { "room_id": 70, "amenity": " Restaurant" },
  { "room_id": 70, "amenity": " Facilities for disabled guests" },
  { "room_id": 70, "amenity": " WiFi in all areas" },
  { "room_id": 70, "amenity": " Free WiFi" },
  { "room_id": 71, "amenity": " Non-smoking rooms" },
  { "room_id": 71, "amenity": " good Fitness Center" },
  { "room_id": 71, "amenity": " Restaurant" },
  { "room_id": 71, "amenity": " Facilities for disabled guests" },
  { "room_id": 71, "amenity": " WiFi in all areas" },
  { "room_id": 71, "amenity": " Free WiFi" },
  { "room_id": 72, "amenity": " Non-smoking rooms" },
  { "room_id": 72, "amenity": " good Fitness Center" },
  { "room_id": 72, "amenity": " Restaurant" },
  { "room_id": 72, "amenity": " Facilities for disabled guests" },
  { "room_id": 72, "amenity": " WiFi in all areas" },
  { "room_id": 72, "amenity": " Free WiFi" },
  { "room_id": 73, "amenity": " Non-smoking rooms" },
  { "room_id": 73, "amenity": " good Fitness Center" },
  { "room_id": 73, "amenity": " Room service" },
  { "room_id": 73, "amenity": " Restaurant" },
  { "room_id": 73, "amenity": " Facilities for disabled guests" },
  { "room_id": 73, "amenity": " WiFi in all areas" },
  { "room_id": 74, "amenity": " Non-smoking rooms" },
  { "room_id": 74, "amenity": " good Fitness Center" },
  { "room_id": 74, "amenity": " Room service" },
  { "room_id": 74, "amenity": " Restaurant" },
  { "room_id": 74, "amenity": " Facilities for disabled guests" },
  { "room_id": 74, "amenity": " WiFi in all areas" },
  { "room_id": 75, "amenity": " Non-smoking rooms" },
  { "room_id": 75, "amenity": " good Fitness Center" },
  { "room_id": 75, "amenity": " Room service" },
  { "room_id": 75, "amenity": " Restaurant" },
  { "room_id": 75, "amenity": " Facilities for disabled guests" },
  { "room_id": 75, "amenity": " WiFi in all areas" },
  { "room_id": 76, "amenity": " Non-smoking rooms" },
  { "room_id": 76, "amenity": " good Fitness Center" },
  { "room_id": 76, "amenity": " Room service" },
  { "room_id": 76, "amenity": " Restaurant" },
  { "room_id": 76, "amenity": " Facilities for disabled guests" },
  { "room_id": 76, "amenity": " WiFi in all areas" },
  { "room_id": 77, "amenity": " Non-smoking rooms" },
  { "room_id": 77, "amenity": " good Fitness Center" },
  { "room_id": 77, "amenity": " Room service" },
  { "room_id": 77, "amenity": " Restaurant" },
  { "room_id": 77, "amenity": " Facilities for disabled guests" },
  { "room_id": 77, "amenity": " WiFi in all areas" },
  { "room_id": 78, "amenity": " Non-smoking rooms" },
  { "room_id": 78, "amenity": " good Fitness Center" },
  { "room_id": 78, "amenity": " Room service" },
  { "room_id": 78, "amenity": " Restaurant" },
  { "room_id": 78, "amenity": " Facilities for disabled guests" },
  { "room_id": 78, "amenity": " WiFi in all areas" },
  { "room_id": 79, "amenity": " Non-smoking rooms" },
  { "room_id": 79, "amenity": " Facilities for disabled guests" },
  { "room_id": 79, "amenity": " WiFi in all areas" },
  { "room_id": 79, "amenity": " Free WiFi" },
  { "room_id": 79, "amenity": " Parking" },
  { "room_id": 79, "amenity": " Breakfast" },
  { "room_id": 80, "amenity": " Non-smoking rooms" },
  { "room_id": 80, "amenity": " Facilities for disabled guests" },
  { "room_id": 80, "amenity": " WiFi in all areas" },
  { "room_id": 80, "amenity": " Free WiFi" },
  { "room_id": 80, "amenity": " Parking" },
  { "room_id": 80, "amenity": " Breakfast" },
  { "room_id": 81, "amenity": " Non-smoking rooms" },
  { "room_id": 81, "amenity": " Facilities for disabled guests" },
  { "room_id": 81, "amenity": " WiFi in all areas" },
  { "room_id": 81, "amenity": " Free WiFi" },
  { "room_id": 81, "amenity": " Parking" },
  { "room_id": 81, "amenity": " Breakfast" },
  { "room_id": 82, "amenity": " Non-smoking rooms" },
  { "room_id": 82, "amenity": " Facilities for disabled guests" },
  { "room_id": 82, "amenity": " WiFi in all areas" },
  { "room_id": 82, "amenity": " Free WiFi" },
  { "room_id": 82, "amenity": " Parking" },
  { "room_id": 82, "amenity": " Breakfast" },
  { "room_id": 83, "amenity": " Non-smoking rooms" },
  { "room_id": 83, "amenity": " very good Fitness Center" },
  { "room_id": 83, "amenity": " Restaurant" },
  { "room_id": 83, "amenity": " Facilities for disabled guests" },
  { "room_id": 83, "amenity": " WiFi in all areas" },
  { "room_id": 83, "amenity": " Free WiFi" },
  { "room_id": 84, "amenity": " Non-smoking rooms" },
  { "room_id": 84, "amenity": " very good Fitness Center" },
  { "room_id": 84, "amenity": " Restaurant" },
  { "room_id": 84, "amenity": " Facilities for disabled guests" },
  { "room_id": 84, "amenity": " WiFi in all areas" },
  { "room_id": 84, "amenity": " Free WiFi" },
  { "room_id": 85, "amenity": " Non-smoking rooms" },
  { "room_id": 85, "amenity": " Room service" },
  { "room_id": 85, "amenity": " Restaurant" },
  { "room_id": 85, "amenity": " Facilities for disabled guests" },
  { "room_id": 85, "amenity": " WiFi in all areas" },
  { "room_id": 85, "amenity": " Private Parking" },
  { "room_id": 86, "amenity": " Non-smoking rooms" },
  { "room_id": 86, "amenity": " Room service" },
  { "room_id": 86, "amenity": " Restaurant" },
  { "room_id": 86, "amenity": " Facilities for disabled guests" },
  { "room_id": 86, "amenity": " WiFi in all areas" },
  { "room_id": 86, "amenity": " Private Parking" },
  { "room_id": 87, "amenity": " Non-smoking rooms" },
  { "room_id": 87, "amenity": " Room service" },
  { "room_id": 87, "amenity": " Restaurant" },
  { "room_id": 87, "amenity": " Facilities for disabled guests" },
  { "room_id": 87, "amenity": " WiFi in all areas" },
  { "room_id": 87, "amenity": " Private Parking" },
  { "room_id": 88, "amenity": " Non-smoking rooms" },
  { "room_id": 88, "amenity": " Room service" },
  { "room_id": 88, "amenity": " Restaurant" },
  { "room_id": 88, "amenity": " Facilities for disabled guests" },
  { "room_id": 88, "amenity": " WiFi in all areas" },
  { "room_id": 88, "amenity": " Private Parking" },
  { "room_id": 89, "amenity": " Non-smoking rooms" },
  { "room_id": 89, "amenity": " Room service" },
  { "room_id": 89, "amenity": " Restaurant" },
  { "room_id": 89, "amenity": " Facilities for disabled guests" },
  { "room_id": 89, "amenity": " WiFi in all areas" },
  { "room_id": 89, "amenity": " Private Parking" },
  { "room_id": 90, "amenity": " Non-smoking rooms" },
  { "room_id": 90, "amenity": " Fitness center" },
  { "room_id": 90, "amenity": " Room service" },
  { "room_id": 90, "amenity": " Restaurant" },
  { "room_id": 90, "amenity": " WiFi in all areas" },
  { "room_id": 90, "amenity": " Private Parking" },
  { "room_id": 91, "amenity": " Non-smoking rooms" },
  { "room_id": 91, "amenity": " Fitness center" },
  { "room_id": 91, "amenity": " Room service" },
  { "room_id": 91, "amenity": " Restaurant" },
  { "room_id": 91, "amenity": " WiFi in all areas" },
  { "room_id": 91, "amenity": " Private Parking" },
  { "room_id": 92, "amenity": " Non-smoking rooms" },
  { "room_id": 92, "amenity": " Fitness center" },
  { "room_id": 92, "amenity": " Room service" },
  { "room_id": 92, "amenity": " Restaurant" },
  { "room_id": 92, "amenity": " WiFi in all areas" },
  { "room_id": 92, "amenity": " Private Parking" },
  { "room_id": 93, "amenity": " Non-smoking rooms" },
  { "room_id": 93, "amenity": " Fitness center" },
  { "room_id": 93, "amenity": " Room service" },
  { "room_id": 93, "amenity": " Restaurant" },
  { "room_id": 93, "amenity": " WiFi in all areas" },
  { "room_id": 93, "amenity": " Private Parking" },
  { "room_id": 94, "amenity": " Non-smoking rooms" },
  { "room_id": 94, "amenity": " Fitness center" },
  { "room_id": 94, "amenity": " Room service" },
  { "room_id": 94, "amenity": " Restaurant" },
  { "room_id": 94, "amenity": " WiFi in all areas" },
  { "room_id": 94, "amenity": " Private Parking" },
  { "room_id": 95, "amenity": " Non-smoking rooms" },
  { "room_id": 95, "amenity": " Fitness center" },
  { "room_id": 95, "amenity": " Room service" },
  { "room_id": 95, "amenity": " Restaurant" },
  { "room_id": 95, "amenity": " Facilities for disabled guests" },
  { "room_id": 95, "amenity": " WiFi in all areas" },
  { "room_id": 96, "amenity": " Non-smoking rooms" },
  { "room_id": 96, "amenity": " Fitness center" },
  { "room_id": 96, "amenity": " Room service" },
  { "room_id": 96, "amenity": " Restaurant" },
  { "room_id": 96, "amenity": " Facilities for disabled guests" },
  { "room_id": 96, "amenity": " WiFi in all areas" },
  { "room_id": 97, "amenity": " Non-smoking rooms" },
  { "room_id": 97, "amenity": " Fitness center" },
  { "room_id": 97, "amenity": " Room service" },
  { "room_id": 97, "amenity": " Restaurant" },
  { "room_id": 97, "amenity": " Facilities for disabled guests" },
  { "room_id": 97, "amenity": " WiFi in all areas" },
  { "room_id": 98, "amenity": " Non-smoking rooms" },
  { "room_id": 98, "amenity": " Fitness center" },
  { "room_id": 98, "amenity": " Room service" },
  { "room_id": 98, "amenity": " Restaurant" },
  { "room_id": 98, "amenity": " Facilities for disabled guests" },
  { "room_id": 98, "amenity": " WiFi in all areas" },
  { "room_id": 99, "amenity": " Non-smoking rooms" },
  { "room_id": 99, "amenity": " Fitness center" },
  { "room_id": 99, "amenity": " Room service" },
  { "room_id": 99, "amenity": " Restaurant" },
  { "room_id": 99, "amenity": " Facilities for disabled guests" },
  { "room_id": 99, "amenity": " WiFi in all areas" },
  { "room_id": 100, "amenity": " Non-smoking rooms" },
  { "room_id": 100, "amenity": " Fitness center" },
  { "room_id": 100, "amenity": " Room service" },
  { "room_id": 100, "amenity": " Restaurant" },
  { "room_id": 100, "amenity": " Facilities for disabled guests" },
  { "room_id": 100, "amenity": " WiFi in all areas" },
  { "room_id": 101, "amenity": " Non-smoking rooms" },
  { "room_id": 101, "amenity": " Fitness center" },
  { "room_id": 101, "amenity": " Room service" },
  { "room_id": 101, "amenity": " Restaurant" },
  { "room_id": 101, "amenity": " Facilities for disabled guests" },
  { "room_id": 101, "amenity": " WiFi in all areas" },
  { "room_id": 102, "amenity": " Non-smoking rooms" },
  { "room_id": 102, "amenity": " Fitness center" },
  { "room_id": 102, "amenity": " Room service" },
  { "room_id": 102, "amenity": " Restaurant" },
  { "room_id": 102, "amenity": " Facilities for disabled guests" },
  { "room_id": 102, "amenity": " WiFi in all areas" },
  { "room_id": 103, "amenity": " Non-smoking rooms" },
  { "room_id": 103, "amenity": " Fitness center" },
  { "room_id": 103, "amenity": " Room service" },
  { "room_id": 103, "amenity": " Restaurant" },
  { "room_id": 103, "amenity": " Facilities for disabled guests" },
  { "room_id": 103, "amenity": " WiFi in all areas" },
  { "room_id": 104, "amenity": " Non-smoking rooms" },
  { "room_id": 104, "amenity": " Fitness center" },
  { "room_id": 104, "amenity": " Room service" },
  { "room_id": 104, "amenity": " Restaurant" },
  { "room_id": 104, "amenity": " Facilities for disabled guests" },
  { "room_id": 104, "amenity": " WiFi in all areas" },
  { "room_id": 105, "amenity": " Non-smoking rooms" },
  { "room_id": 105, "amenity": " Fitness center" },
  { "room_id": 105, "amenity": " Room service" },
  { "room_id": 105, "amenity": " Restaurant" },
  { "room_id": 105, "amenity": " Facilities for disabled guests" },
  { "room_id": 105, "amenity": " WiFi in all areas" },
  { "room_id": 106, "amenity": " Non-smoking rooms" },
  { "room_id": 106, "amenity": " Fitness center" },
  { "room_id": 106, "amenity": " Room service" },
  { "room_id": 106, "amenity": " Restaurant" },
  { "room_id": 106, "amenity": " Facilities for disabled guests" },
  { "room_id": 106, "amenity": " WiFi in all areas" },
  { "room_id": 107, "amenity": " Non-smoking rooms" },
  { "room_id": 107, "amenity": " Fitness center" },
  { "room_id": 107, "amenity": " Room service" },
  { "room_id": 107, "amenity": " Restaurant" },
  { "room_id": 107, "amenity": " Facilities for disabled guests" },
  { "room_id": 107, "amenity": " WiFi in all areas" },
  { "room_id": 108, "amenity": " Non-smoking rooms" },
  { "room_id": 108, "amenity": " Fitness center" },
  { "room_id": 108, "amenity": " Room service" },
  { "room_id": 108, "amenity": " Restaurant" },
  { "room_id": 108, "amenity": " Facilities for disabled guests" },
  { "room_id": 108, "amenity": " Private Parking" },
  { "room_id": 109, "amenity": " Non-smoking rooms" },
  { "room_id": 109, "amenity": " Fitness center" },
  { "room_id": 109, "amenity": " Room service" },
  { "room_id": 109, "amenity": " Restaurant" },
  { "room_id": 109, "amenity": " Facilities for disabled guests" },
  { "room_id": 109, "amenity": " Private Parking" },
  { "room_id": 110, "amenity": " Non-smoking rooms" },
  { "room_id": 110, "amenity": " Fitness center" },
  { "room_id": 110, "amenity": " Room service" },
  { "room_id": 110, "amenity": " Restaurant" },
  { "room_id": 110, "amenity": " Facilities for disabled guests" },
  { "room_id": 110, "amenity": " Private Parking" },
  { "room_id": 111, "amenity": " Non-smoking rooms" },
  { "room_id": 111, "amenity": " Fitness center" },
  { "room_id": 111, "amenity": " Room service" },
  { "room_id": 111, "amenity": " Restaurant" },
  { "room_id": 111, "amenity": " Facilities for disabled guests" },
  { "room_id": 111, "amenity": " Private Parking" },
  { "room_id": 112, "amenity": " Non-smoking rooms" },
  { "room_id": 112, "amenity": " Fitness center" },
  { "room_id": 112, "amenity": " Restaurant" },
  { "room_id": 112, "amenity": " Facilities for disabled guests" },
  { "room_id": 112, "amenity": " Free WiFi - 8.4 Very Good" },
  { "room_id": 112, "amenity": " Parking" },
  { "room_id": 113, "amenity": " Non-smoking rooms" },
  { "room_id": 113, "amenity": " Fitness center" },
  { "room_id": 113, "amenity": " Restaurant" },
  { "room_id": 113, "amenity": " Facilities for disabled guests" },
  { "room_id": 113, "amenity": " Free WiFi - 8.4 Very Good" },
  { "room_id": 113, "amenity": " Parking" },
  { "room_id": 114, "amenity": " Non-smoking rooms" },
  { "room_id": 114, "amenity": " Fitness center" },
  { "room_id": 114, "amenity": " Restaurant" },
  { "room_id": 114, "amenity": " Facilities for disabled guests" },
  { "room_id": 114, "amenity": " Free WiFi - 8.4 Very Good" },
  { "room_id": 114, "amenity": " Parking" },
  { "room_id": 115, "amenity": " Non-smoking rooms" },
  { "room_id": 115, "amenity": " Fitness center" },
  { "room_id": 115, "amenity": " Restaurant" },
  { "room_id": 115, "amenity": " Facilities for disabled guests" },
  { "room_id": 115, "amenity": " Free WiFi - 8.4 Very Good" },
  { "room_id": 115, "amenity": " Parking" },
  { "room_id": 116, "amenity": " Non-smoking rooms" },
  { "room_id": 116, "amenity": " Fitness center" },
  { "room_id": 116, "amenity": " Room service" },
  { "room_id": 116, "amenity": " Restaurant" },
  { "room_id": 116, "amenity": " Facilities for disabled guests" },
  { "room_id": 116, "amenity": " WiFi in all areas" },
  { "room_id": 117, "amenity": " Non-smoking rooms" },
  { "room_id": 117, "amenity": " Fitness center" },
  { "room_id": 117, "amenity": " Room service" },
  { "room_id": 117, "amenity": " Restaurant" },
  { "room_id": 117, "amenity": " Facilities for disabled guests" },
  { "room_id": 117, "amenity": " WiFi in all areas" },
  { "room_id": 118, "amenity": " Non-smoking rooms" },
  { "room_id": 118, "amenity": " Fitness center" },
  { "room_id": 118, "amenity": " Room service" },
  { "room_id": 118, "amenity": " Restaurant" },
  { "room_id": 118, "amenity": " Facilities for disabled guests" },
  { "room_id": 118, "amenity": " WiFi in all areas" },
  { "room_id": 119, "amenity": " Non-smoking rooms" },
  { "room_id": 119, "amenity": " Fitness center" },
  { "room_id": 119, "amenity": " Room service" },
  { "room_id": 119, "amenity": " Restaurant" },
  { "room_id": 119, "amenity": " Facilities for disabled guests" },
  { "room_id": 119, "amenity": " WiFi in all areas" },
  { "room_id": 120, "amenity": " Non-smoking rooms" },
  { "room_id": 120, "amenity": " Fitness center" },
  { "room_id": 120, "amenity": " Room service" },
  { "room_id": 120, "amenity": " Restaurant" },
  { "room_id": 120, "amenity": " Facilities for disabled guests" },
  { "room_id": 120, "amenity": " WiFi in all areas" },
  { "room_id": 121, "amenity": " Non-smoking rooms" },
  { "room_id": 121, "amenity": " Fitness center" },
  { "room_id": 121, "amenity": " Room service" },
  { "room_id": 121, "amenity": " Restaurant" },
  { "room_id": 121, "amenity": " Facilities for disabled guests" },
  { "room_id": 121, "amenity": " WiFi in all areas" },
  { "room_id": 122, "amenity": " Non-smoking rooms" },
  { "room_id": 122, "amenity": " Fitness center" },
  { "room_id": 122, "amenity": " Room service" },
  { "room_id": 122, "amenity": " Restaurant" },
  { "room_id": 122, "amenity": " Facilities for disabled guests" },
  { "room_id": 122, "amenity": " WiFi in all areas" },
  { "room_id": 123, "amenity": " Non-smoking rooms" },
  { "room_id": 123, "amenity": " Fitness center" },
  { "room_id": 123, "amenity": " Room service" },
  { "room_id": 123, "amenity": " Restaurant" },
  { "room_id": 123, "amenity": " Facilities for disabled guests" },
  { "room_id": 123, "amenity": " WiFi in all areas" },
  { "room_id": 124, "amenity": " Fitness center" },
  { "room_id": 124, "amenity": " Room service" },
  { "room_id": 124, "amenity": " Restaurant" },
  { "room_id": 124, "amenity": " Facilities for disabled guests" },
  { "room_id": 124, "amenity": " WiFi in all areas" },
  { "room_id": 124, "amenity": " WiFi" },
  { "room_id": 125, "amenity": " Fitness center" },
  { "room_id": 125, "amenity": " Room service" },
  { "room_id": 125, "amenity": " Restaurant" },
  { "room_id": 125, "amenity": " Facilities for disabled guests" },
  { "room_id": 125, "amenity": " WiFi in all areas" },
  { "room_id": 125, "amenity": " WiFi" },
  { "room_id": 126, "amenity": " Fitness center" },
  { "room_id": 126, "amenity": " Room service" },
  { "room_id": 126, "amenity": " Restaurant" },
  { "room_id": 126, "amenity": " Facilities for disabled guests" },
  { "room_id": 126, "amenity": " WiFi in all areas" },
  { "room_id": 126, "amenity": " WiFi" },
  { "room_id": 127, "amenity": " Fitness center" },
  { "room_id": 127, "amenity": " Room service" },
  { "room_id": 127, "amenity": " Restaurant" },
  { "room_id": 127, "amenity": " Facilities for disabled guests" },
  { "room_id": 127, "amenity": " WiFi in all areas" },
  { "room_id": 127, "amenity": " WiFi" },
  { "room_id": 128, "amenity": " Non-smoking rooms" },
  { "room_id": 128, "amenity": " Fitness center" },
  { "room_id": 128, "amenity": " Room service" },
  { "room_id": 128, "amenity": " Restaurant" },
  { "room_id": 128, "amenity": " Facilities for disabled guests" },
  { "room_id": 128, "amenity": " WiFi in all areas" },
  { "room_id": 129, "amenity": " Non-smoking rooms" },
  { "room_id": 129, "amenity": " Fitness center" },
  { "room_id": 129, "amenity": " Room service" },
  { "room_id": 129, "amenity": " Restaurant" },
  { "room_id": 129, "amenity": " Facilities for disabled guests" },
  { "room_id": 129, "amenity": " WiFi in all areas" },
  { "room_id": 130, "amenity": " Non-smoking rooms" },
  { "room_id": 130, "amenity": " Fitness center" },
  { "room_id": 130, "amenity": " Room service" },
  { "room_id": 130, "amenity": " Restaurant" },
  { "room_id": 130, "amenity": " Facilities for disabled guests" },
  { "room_id": 130, "amenity": " WiFi in all areas" },
  { "room_id": 131, "amenity": " Non-smoking rooms" },
  { "room_id": 131, "amenity": " Fitness center" },
  { "room_id": 131, "amenity": " Room service" },
  { "room_id": 131, "amenity": " Restaurant" },
  { "room_id": 131, "amenity": " Facilities for disabled guests" },
  { "room_id": 131, "amenity": " WiFi in all areas" },
  { "room_id": 132, "amenity": " Non-smoking rooms" },
  { "room_id": 132, "amenity": " good Fitness Center (temporarily closed)" },
  { "room_id": 132, "amenity": " Facilities for disabled guests" },
  { "room_id": 132, "amenity": " WiFi in all areas" },
  { "room_id": 132, "amenity": " Free WiFi" },
  { "room_id": 132, "amenity": " Parking" },
  { "room_id": 133, "amenity": " Non-smoking rooms" },
  { "room_id": 133, "amenity": " good Fitness Center (temporarily closed)" },
  { "room_id": 133, "amenity": " Facilities for disabled guests" },
  { "room_id": 133, "amenity": " WiFi in all areas" },
  { "room_id": 133, "amenity": " Free WiFi" },
  { "room_id": 133, "amenity": " Parking" },
  { "room_id": 134, "amenity": " Non-smoking rooms" },
  { "room_id": 134, "amenity": " good Fitness Center (temporarily closed)" },
  { "room_id": 134, "amenity": " Facilities for disabled guests" },
  { "room_id": 134, "amenity": " WiFi in all areas" },
  { "room_id": 134, "amenity": " Free WiFi" },
  { "room_id": 134, "amenity": " Parking" },
  { "room_id": 135, "amenity": " Non-smoking rooms" },
  { "room_id": 135, "amenity": " good Fitness Center (temporarily closed)" },
  { "room_id": 135, "amenity": " Facilities for disabled guests" },
  { "room_id": 135, "amenity": " WiFi in all areas" },
  { "room_id": 135, "amenity": " Free WiFi" },
  { "room_id": 135, "amenity": " Parking" },
  { "room_id": 136, "amenity": " Non-smoking rooms" },
  { "room_id": 136, "amenity": " good Fitness Center (temporarily closed)" },
  { "room_id": 136, "amenity": " Facilities for disabled guests" },
  { "room_id": 136, "amenity": " WiFi in all areas" },
  { "room_id": 136, "amenity": " Free WiFi" },
  { "room_id": 136, "amenity": " Parking" },
  { "room_id": 137, "amenity": " Non-smoking rooms" },
  { "room_id": 137, "amenity": " Fitness center" },
  { "room_id": 137, "amenity": " Room service" },
  { "room_id": 137, "amenity": " Restaurant" },
  { "room_id": 137, "amenity": " Facilities for disabled guests" },
  { "room_id": 137, "amenity": " WiFi in all areas" },
  { "room_id": 138, "amenity": " Non-smoking rooms" },
  { "room_id": 138, "amenity": " Fitness center" },
  { "room_id": 138, "amenity": " Room service" },
  { "room_id": 138, "amenity": " Restaurant" },
  { "room_id": 138, "amenity": " Facilities for disabled guests" },
  { "room_id": 138, "amenity": " WiFi in all areas" },
  { "room_id": 139, "amenity": " Non-smoking rooms" },
  { "room_id": 139, "amenity": " Fitness center" },
  { "room_id": 139, "amenity": " Room service" },
  { "room_id": 139, "amenity": " Restaurant" },
  { "room_id": 139, "amenity": " Facilities for disabled guests" },
  { "room_id": 139, "amenity": " WiFi in all areas" },
  { "room_id": 140, "amenity": " Non-smoking rooms" },
  { "room_id": 140, "amenity": " Fitness center" },
  { "room_id": 140, "amenity": " Room service" },
  { "room_id": 140, "amenity": " Restaurant" },
  { "room_id": 140, "amenity": " Facilities for disabled guests" },
  { "room_id": 140, "amenity": " WiFi in all areas" },
  { "room_id": 141, "amenity": " Non-smoking rooms" },
  { "room_id": 141, "amenity": " Fitness center" },
  { "room_id": 141, "amenity": " Room service" },
  { "room_id": 141, "amenity": " Restaurant" },
  { "room_id": 141, "amenity": " Facilities for disabled guests" },
  { "room_id": 141, "amenity": " WiFi in all areas" },
  { "room_id": 142, "amenity": " Non-smoking rooms" },
  { "room_id": 142, "amenity": " Fitness center" },
  { "room_id": 142, "amenity": " Room service" },
  { "room_id": 142, "amenity": " Restaurant" },
  { "room_id": 142, "amenity": " Facilities for disabled guests" },
  { "room_id": 142, "amenity": " WiFi in all areas" },
  { "room_id": 143, "amenity": " Non-smoking rooms" },
  { "room_id": 143, "amenity": " Fitness center" },
  { "room_id": 143, "amenity": " Room service" },
  { "room_id": 143, "amenity": " Restaurant" },
  { "room_id": 143, "amenity": " Facilities for disabled guests" },
  { "room_id": 143, "amenity": " WiFi in all areas" },
  { "room_id": 144, "amenity": " Non-smoking rooms" },
  { "room_id": 144, "amenity": " Fitness center" },
  { "room_id": 144, "amenity": " Room service" },
  { "room_id": 144, "amenity": " Restaurant" },
  { "room_id": 144, "amenity": " Facilities for disabled guests" },
  { "room_id": 144, "amenity": " WiFi in all areas" },
  { "room_id": 145, "amenity": " Non-smoking rooms" },
  { "room_id": 145, "amenity": " Fitness center" },
  { "room_id": 145, "amenity": " Room service" },
  { "room_id": 145, "amenity": " Restaurant" },
  { "room_id": 145, "amenity": " Facilities for disabled guests" },
  { "room_id": 145, "amenity": " WiFi in all areas" },
  { "room_id": 146, "amenity": " Non-smoking rooms" },
  { "room_id": 146, "amenity": " good Fitness Center" },
  { "room_id": 146, "amenity": " Room service" },
  { "room_id": 146, "amenity": " Restaurant (temporarily closed)" },
  { "room_id": 146, "amenity": " WiFi in all areas" },
  { "room_id": 146, "amenity": " Free WiFi - 8.5 Very Good" },
  { "room_id": 147, "amenity": " Non-smoking rooms" },
  { "room_id": 147, "amenity": " good Fitness Center" },
  { "room_id": 147, "amenity": " Room service" },
  { "room_id": 147, "amenity": " Restaurant (temporarily closed)" },
  { "room_id": 147, "amenity": " WiFi in all areas" },
  { "room_id": 147, "amenity": " Free WiFi - 8.5 Very Good" },
  { "room_id": 148, "amenity": " Non-smoking rooms" },
  { "room_id": 148, "amenity": " good Fitness Center" },
  { "room_id": 148, "amenity": " Room service" },
  { "room_id": 148, "amenity": " Restaurant (temporarily closed)" },
  { "room_id": 148, "amenity": " WiFi in all areas" },
  { "room_id": 148, "amenity": " Free WiFi - 8.5 Very Good" },
  { "room_id": 149, "amenity": " Non-smoking rooms" },
  { "room_id": 149, "amenity": " good Fitness Center" },
  { "room_id": 149, "amenity": " Room service" },
  { "room_id": 149, "amenity": " Restaurant (temporarily closed)" },
  { "room_id": 149, "amenity": " WiFi in all areas" },
  { "room_id": 149, "amenity": " Free WiFi - 8.5 Very Good" },
  { "room_id": 150, "amenity": " Non-smoking rooms" },
  { "room_id": 150, "amenity": " Fitness center" },
  { "room_id": 150, "amenity": " Facilities for disabled guests" },
  { "room_id": 150, "amenity": " WiFi in all areas" },
  { "room_id": 150, "amenity": " Free WiFi" },
  { "room_id": 150, "amenity": " Breakfast" },
  { "room_id": 151, "amenity": " Non-smoking rooms" },
  { "room_id": 151, "amenity": " Fitness center" },
  { "room_id": 151, "amenity": " Facilities for disabled guests" },
  { "room_id": 151, "amenity": " WiFi in all areas" },
  { "room_id": 151, "amenity": " Free WiFi" },
  { "room_id": 151, "amenity": " Breakfast" },
  { "room_id": 152, "amenity": " Non-smoking rooms" },
  { "room_id": 152, "amenity": " Fitness center" },
  { "room_id": 152, "amenity": " Facilities for disabled guests" },
  { "room_id": 152, "amenity": " WiFi in all areas" },
  { "room_id": 152, "amenity": " Free WiFi" },
  { "room_id": 152, "amenity": " Breakfast" },
  { "room_id": 153, "amenity": " Non-smoking rooms" },
  { "room_id": 153, "amenity": " Fitness center" },
  { "room_id": 153, "amenity": " Facilities for disabled guests" },
  { "room_id": 153, "amenity": " WiFi in all areas" },
  { "room_id": 153, "amenity": " Free WiFi" },
  { "room_id": 153, "amenity": " Breakfast" },
  { "room_id": 154, "amenity": " Non-smoking rooms" },
  { "room_id": 154, "amenity": " good Fitness Center" },
  { "room_id": 154, "amenity": " Facilities for disabled guests" },
  { "room_id": 154, "amenity": " WiFi in all areas" },
  { "room_id": 154, "amenity": " Free WiFi" },
  { "room_id": 154, "amenity": " Parking" },
  { "room_id": 155, "amenity": " Non-smoking rooms" },
  { "room_id": 155, "amenity": " good Fitness Center" },
  { "room_id": 155, "amenity": " Facilities for disabled guests" },
  { "room_id": 155, "amenity": " WiFi in all areas" },
  { "room_id": 155, "amenity": " Free WiFi" },
  { "room_id": 155, "amenity": " Parking" },
  { "room_id": 156, "amenity": " Non-smoking rooms" },
  { "room_id": 156, "amenity": " good Fitness Center" },
  { "room_id": 156, "amenity": " Facilities for disabled guests" },
  { "room_id": 156, "amenity": " WiFi in all areas" },
  { "room_id": 156, "amenity": " Free WiFi" },
  { "room_id": 156, "amenity": " Parking" },
  { "room_id": 157, "amenity": " Non-smoking rooms" },
  { "room_id": 157, "amenity": " good Fitness Center" },
  { "room_id": 157, "amenity": " Facilities for disabled guests" },
  { "room_id": 157, "amenity": " WiFi in all areas" },
  { "room_id": 157, "amenity": " Free WiFi" },
  { "room_id": 157, "amenity": " Parking" },
  { "room_id": 158, "amenity": " Non-smoking rooms" },
  { "room_id": 158, "amenity": " good Fitness Center" },
  { "room_id": 158, "amenity": " Restaurant" },
  { "room_id": 158, "amenity": " WiFi in all areas" },
  { "room_id": 158, "amenity": " Free WiFi" },
  { "room_id": 158, "amenity": " Parking" },
  { "room_id": 159, "amenity": " Non-smoking rooms" },
  { "room_id": 159, "amenity": " good Fitness Center" },
  { "room_id": 159, "amenity": " Restaurant" },
  { "room_id": 159, "amenity": " WiFi in all areas" },
  { "room_id": 159, "amenity": " Free WiFi" },
  { "room_id": 159, "amenity": " Parking" },
  { "room_id": 160, "amenity": " Non-smoking rooms" },
  { "room_id": 160, "amenity": " good Fitness Center" },
  { "room_id": 160, "amenity": " Restaurant" },
  { "room_id": 160, "amenity": " WiFi in all areas" },
  { "room_id": 160, "amenity": " Free WiFi" },
  { "room_id": 160, "amenity": " Parking" },
  { "room_id": 161, "amenity": " Non-smoking rooms" },
  { "room_id": 161, "amenity": " good Fitness Center" },
  { "room_id": 161, "amenity": " Restaurant" },
  { "room_id": 161, "amenity": " WiFi in all areas" },
  { "room_id": 161, "amenity": " Free WiFi" },
  { "room_id": 161, "amenity": " Parking" },
  { "room_id": 162, "amenity": " Non-smoking rooms" },
  { "room_id": 162, "amenity": " good Fitness Center" },
  { "room_id": 162, "amenity": " Restaurant" },
  { "room_id": 162, "amenity": " WiFi in all areas" },
  { "room_id": 162, "amenity": " Free WiFi" },
  { "room_id": 162, "amenity": " Parking" },
  { "room_id": 163, "amenity": " Non-smoking rooms" },
  { "room_id": 163, "amenity": " Fitness center" },
  { "room_id": 163, "amenity": " Restaurant" },
  { "room_id": 163, "amenity": " Facilities for disabled guests" },
  { "room_id": 163, "amenity": " WiFi in all areas" },
  { "room_id": 163, "amenity": " Free WiFi" },
  { "room_id": 164, "amenity": " Non-smoking rooms" },
  { "room_id": 164, "amenity": " Fitness center" },
  { "room_id": 164, "amenity": " Restaurant" },
  { "room_id": 164, "amenity": " Facilities for disabled guests" },
  { "room_id": 164, "amenity": " WiFi in all areas" },
  { "room_id": 164, "amenity": " Free WiFi" },
  { "room_id": 165, "amenity": " Non-smoking rooms" },
  { "room_id": 165, "amenity": " Fitness center" },
  { "room_id": 165, "amenity": " Restaurant" },
  { "room_id": 165, "amenity": " Facilities for disabled guests" },
  { "room_id": 165, "amenity": " WiFi in all areas" },
  { "room_id": 165, "amenity": " Free WiFi" },
  { "room_id": 166, "amenity": " Non-smoking rooms" },
  { "room_id": 166, "amenity": " Fitness center" },
  { "room_id": 166, "amenity": " Room service" },
  { "room_id": 166, "amenity": " Restaurant" },
  { "room_id": 166, "amenity": " Facilities for disabled guests" },
  { "room_id": 166, "amenity": " Private Parking" },
  { "room_id": 167, "amenity": " Non-smoking rooms" },
  { "room_id": 167, "amenity": " Fitness center" },
  { "room_id": 167, "amenity": " Room service" },
  { "room_id": 167, "amenity": " Restaurant" },
  { "room_id": 167, "amenity": " Facilities for disabled guests" },
  { "room_id": 167, "amenity": " Private Parking" },
  { "room_id": 168, "amenity": " 1 swimming pool" },
  { "room_id": 168, "amenity": " Non-smoking rooms" },
  { "room_id": 168, "amenity": " wonderful Fitness Center" },
  { "room_id": 168, "amenity": " Room service" },
  { "room_id": 168, "amenity": " Restaurant" },
  { "room_id": 168, "amenity": " Facilities for disabled guests" },
  { "room_id": 169, "amenity": " 1 swimming pool" },
  { "room_id": 169, "amenity": " Non-smoking rooms" },
  { "room_id": 169, "amenity": " wonderful Fitness Center" },
  { "room_id": 169, "amenity": " Room service" },
  { "room_id": 169, "amenity": " Restaurant" },
  { "room_id": 169, "amenity": " Facilities for disabled guests" },
  { "room_id": 170, "amenity": " 1 swimming pool" },
  { "room_id": 170, "amenity": " Non-smoking rooms" },
  { "room_id": 170, "amenity": " wonderful Fitness Center" },
  { "room_id": 170, "amenity": " Room service" },
  { "room_id": 170, "amenity": " Restaurant" },
  { "room_id": 170, "amenity": " Facilities for disabled guests" },
  { "room_id": 171, "amenity": " 1 swimming pool" },
  { "room_id": 171, "amenity": " Non-smoking rooms" },
  { "room_id": 171, "amenity": " wonderful Fitness Center" },
  { "room_id": 171, "amenity": " Room service" },
  { "room_id": 171, "amenity": " Restaurant" },
  { "room_id": 171, "amenity": " Facilities for disabled guests" },
  { "room_id": 172, "amenity": " 1 swimming pool" },
  { "room_id": 172, "amenity": " Non-smoking rooms" },
  { "room_id": 172, "amenity": " wonderful Fitness Center" },
  { "room_id": 172, "amenity": " Room service" },
  { "room_id": 172, "amenity": " Restaurant" },
  { "room_id": 172, "amenity": " Facilities for disabled guests" },
  { "room_id": 173, "amenity": " 1 swimming pool" },
  { "room_id": 173, "amenity": " Non-smoking rooms" },
  { "room_id": 173, "amenity": " wonderful Fitness Center" },
  { "room_id": 173, "amenity": " Room service" },
  { "room_id": 173, "amenity": " Restaurant" },
  { "room_id": 173, "amenity": " Facilities for disabled guests" },
  { "room_id": 174, "amenity": " 1 swimming pool" },
  { "room_id": 174, "amenity": " Non-smoking rooms" },
  { "room_id": 174, "amenity": " wonderful Fitness Center" },
  { "room_id": 174, "amenity": " Room service" },
  { "room_id": 174, "amenity": " Restaurant" },
  { "room_id": 174, "amenity": " Facilities for disabled guests" },
  { "room_id": 175, "amenity": " 1 swimming pool" },
  { "room_id": 175, "amenity": " Non-smoking rooms" },
  { "room_id": 175, "amenity": " wonderful Fitness Center" },
  { "room_id": 175, "amenity": " Room service" },
  { "room_id": 175, "amenity": " Restaurant" },
  { "room_id": 175, "amenity": " Facilities for disabled guests" },
  { "room_id": 176, "amenity": " 1 swimming pool" },
  { "room_id": 176, "amenity": " Non-smoking rooms" },
  { "room_id": 176, "amenity": " wonderful Fitness Center" },
  { "room_id": 176, "amenity": " Room service" },
  { "room_id": 176, "amenity": " Restaurant" },
  { "room_id": 176, "amenity": " Facilities for disabled guests" },
  { "room_id": 177, "amenity": " 1 swimming pool" },
  { "room_id": 177, "amenity": " Non-smoking rooms" },
  { "room_id": 177, "amenity": " wonderful Fitness Center" },
  { "room_id": 177, "amenity": " Room service" },
  { "room_id": 177, "amenity": " Restaurant" },
  { "room_id": 177, "amenity": " Facilities for disabled guests" },
  { "room_id": 178, "amenity": " 1 swimming pool" },
  { "room_id": 178, "amenity": " Non-smoking rooms" },
  { "room_id": 178, "amenity": " wonderful Fitness Center" },
  { "room_id": 178, "amenity": " Room service" },
  { "room_id": 178, "amenity": " Restaurant" },
  { "room_id": 178, "amenity": " Facilities for disabled guests" },
  { "room_id": 179, "amenity": " 1 swimming pool" },
  { "room_id": 179, "amenity": " Non-smoking rooms" },
  { "room_id": 179, "amenity": " wonderful Fitness Center" },
  { "room_id": 179, "amenity": " Room service" },
  { "room_id": 179, "amenity": " Restaurant" },
  { "room_id": 179, "amenity": " Facilities for disabled guests" },
  { "room_id": 180, "amenity": " Non-smoking rooms" },
  { "room_id": 180, "amenity": " good Fitness Center" },
  { "room_id": 180, "amenity": " Room service" },
  { "room_id": 180, "amenity": " Restaurant" },
  { "room_id": 180, "amenity": " WiFi in all areas" },
  { "room_id": 180, "amenity": " Private Parking" },
  { "room_id": 181, "amenity": " Non-smoking rooms" },
  { "room_id": 181, "amenity": " good Fitness Center" },
  { "room_id": 181, "amenity": " Room service" },
  { "room_id": 181, "amenity": " Restaurant" },
  { "room_id": 181, "amenity": " WiFi in all areas" },
  { "room_id": 181, "amenity": " Private Parking" },
  { "room_id": 182, "amenity": " Non-smoking rooms" },
  { "room_id": 182, "amenity": " good Fitness Center" },
  { "room_id": 182, "amenity": " Room service" },
  { "room_id": 182, "amenity": " Restaurant" },
  { "room_id": 182, "amenity": " WiFi in all areas" },
  { "room_id": 182, "amenity": " Private Parking" },
  { "room_id": 183, "amenity": " Non-smoking rooms" },
  { "room_id": 183, "amenity": " Fitness center" },
  { "room_id": 183, "amenity": " Room service" },
  { "room_id": 183, "amenity": " Restaurant" },
  { "room_id": 183, "amenity": " Facilities for disabled guests" },
  { "room_id": 183, "amenity": " WiFi in all areas" },
  { "room_id": 184, "amenity": " Non-smoking rooms" },
  { "room_id": 184, "amenity": " Fitness center" },
  { "room_id": 184, "amenity": " Room service" },
  { "room_id": 184, "amenity": " Restaurant" },
  { "room_id": 184, "amenity": " Facilities for disabled guests" },
  { "room_id": 184, "amenity": " WiFi in all areas" },
  { "room_id": 185, "amenity": " Non-smoking rooms" },
  { "room_id": 185, "amenity": " Fitness center" },
  { "room_id": 185, "amenity": " Room service" },
  { "room_id": 185, "amenity": " Restaurant" },
  { "room_id": 185, "amenity": " Facilities for disabled guests" },
  { "room_id": 185, "amenity": " WiFi in all areas" },
  { "room_id": 186, "amenity": " Non-smoking rooms" },
  { "room_id": 186, "amenity": " Fitness center" },
  { "room_id": 186, "amenity": " Room service" },
  { "room_id": 186, "amenity": " Restaurant" },
  { "room_id": 186, "amenity": " Facilities for disabled guests" },
  { "room_id": 186, "amenity": " WiFi in all areas" },
  { "room_id": 187, "amenity": " Non-smoking rooms" },
  { "room_id": 187, "amenity": " Fitness center" },
  { "room_id": 187, "amenity": " Room service" },
  { "room_id": 187, "amenity": " Restaurant" },
  { "room_id": 187, "amenity": " Facilities for disabled guests" },
  { "room_id": 187, "amenity": " WiFi in all areas" },
  { "room_id": 188, "amenity": " Non-smoking rooms" },
  { "room_id": 188, "amenity": " good Fitness Center" },
  { "room_id": 188, "amenity": " Facilities for disabled guests" },
  { "room_id": 188, "amenity": " WiFi in all areas" },
  { "room_id": 188, "amenity": " Free WiFi" },
  { "room_id": 188, "amenity": " Good Breakfast" },
  { "room_id": 189, "amenity": " Non-smoking rooms" },
  { "room_id": 189, "amenity": " good Fitness Center" },
  { "room_id": 189, "amenity": " Facilities for disabled guests" },
  { "room_id": 189, "amenity": " WiFi in all areas" },
  { "room_id": 189, "amenity": " Free WiFi" },
  { "room_id": 189, "amenity": " Good Breakfast" },
  { "room_id": 190, "amenity": " Non-smoking rooms" },
  { "room_id": 190, "amenity": " good Fitness Center" },
  { "room_id": 190, "amenity": " Facilities for disabled guests" },
  { "room_id": 190, "amenity": " WiFi in all areas" },
  { "room_id": 190, "amenity": " Free WiFi" },
  { "room_id": 190, "amenity": " Good Breakfast" },
  { "room_id": 191, "amenity": " Non-smoking rooms" },
  { "room_id": 191, "amenity": " good Fitness Center" },
  { "room_id": 191, "amenity": " Facilities for disabled guests" },
  { "room_id": 191, "amenity": " WiFi in all areas" },
  { "room_id": 191, "amenity": " Free WiFi" },
  { "room_id": 191, "amenity": " Good Breakfast" },
  { "room_id": 192, "amenity": " Non-smoking rooms" },
  { "room_id": 192, "amenity": " good Fitness Center" },
  { "room_id": 192, "amenity": " Facilities for disabled guests" },
  { "room_id": 192, "amenity": " WiFi in all areas" },
  { "room_id": 192, "amenity": " Free WiFi" },
  { "room_id": 192, "amenity": " Good Breakfast" },
  { "room_id": 193, "amenity": " Non-smoking rooms" },
  { "room_id": 193, "amenity": " very good Fitness Center" },
  { "room_id": 193, "amenity": " Facilities for disabled guests" },
  { "room_id": 193, "amenity": " WiFi in all areas" },
  { "room_id": 193, "amenity": " Free WiFi" },
  { "room_id": 193, "amenity": " Parking" },
  { "room_id": 194, "amenity": " Non-smoking rooms" },
  { "room_id": 194, "amenity": " very good Fitness Center" },
  { "room_id": 194, "amenity": " Facilities for disabled guests" },
  { "room_id": 194, "amenity": " WiFi in all areas" },
  { "room_id": 194, "amenity": " Free WiFi" },
  { "room_id": 194, "amenity": " Parking" },
  { "room_id": 195, "amenity": " Non-smoking rooms" },
  { "room_id": 195, "amenity": " very good Fitness Center" },
  { "room_id": 195, "amenity": " Facilities for disabled guests" },
  { "room_id": 195, "amenity": " WiFi in all areas" },
  { "room_id": 195, "amenity": " Free WiFi" },
  { "room_id": 195, "amenity": " Parking" },
  { "room_id": 196, "amenity": " Non-smoking rooms" },
  { "room_id": 196, "amenity": " very good Fitness Center" },
  { "room_id": 196, "amenity": " Facilities for disabled guests" },
  { "room_id": 196, "amenity": " WiFi in all areas" },
  { "room_id": 196, "amenity": " Free WiFi" },
  { "room_id": 196, "amenity": " Parking" },
  { "room_id": 197, "amenity": " Non-smoking rooms" },
  { "room_id": 197, "amenity": " good Fitness Center" },
  { "room_id": 197, "amenity": " Room service" },
  { "room_id": 197, "amenity": " Restaurant" },
  { "room_id": 197, "amenity": " Facilities for disabled guests" },
  { "room_id": 197, "amenity": " WiFi in all areas" },
  { "room_id": 198, "amenity": " Non-smoking rooms" },
  { "room_id": 198, "amenity": " good Fitness Center" },
  { "room_id": 198, "amenity": " Room service" },
  { "room_id": 198, "amenity": " Restaurant" },
  { "room_id": 198, "amenity": " Facilities for disabled guests" },
  { "room_id": 198, "amenity": " WiFi in all areas" },
  { "room_id": 199, "amenity": " Non-smoking rooms" },
  { "room_id": 199, "amenity": " good Fitness Center" },
  { "room_id": 199, "amenity": " Room service" },
  { "room_id": 199, "amenity": " Restaurant" },
  { "room_id": 199, "amenity": " Facilities for disabled guests" },
  { "room_id": 199, "amenity": " WiFi in all areas" },
  { "room_id": 200, "amenity": " Non-smoking rooms" },
  { "room_id": 200, "amenity": " good Fitness Center" },
  { "room_id": 200, "amenity": " Room service" },
  { "room_id": 200, "amenity": " Restaurant" },
  { "room_id": 200, "amenity": " Facilities for disabled guests" },
  { "room_id": 200, "amenity": " WiFi in all areas" }
]
